<?xml version="1.0" encoding="UTF-8"?>
<ndm xmlns:xsi="http://www.w3.org/2001/XMLSchema-instance" xsi:noNamespaceSchemaLocation="https://sanaregistry.org/r/ndmxml_unqualified/ndmxml-2.0.0-master-2.0.xsd">
<omm id="CCSDS_OMM_VERS" version="2.0">
<header><CREATION_DATE/><ORIGINATOR/></header><body><segment><metadata><OBJECT_NAME>ONEWEB-0249</OBJECT_NAME><OBJECT_ID>2021-060A</OBJECT_ID><CENTER_NAME>EARTH</CENTER_NAME><REF_FRAME>TEME</REF_FRAME><TIME_SYSTEM>UTC</TIME_SYSTEM><MEAN_ELEMENT_THEORY>SGP4</MEAN_ELEMENT_THEORY></metadata><data><meanElements><EPOCH>2025-11-03T15:28:57.614592</EPOCH><MEAN_MOTION>13.16595173</MEAN_MOTION><ECCENTRICITY>.00020305</ECCENTRICITY><INCLINATION>87.8993</INCLINATION><RA_OF_ASC_NODE>273.7014</RA_OF_ASC_NODE><ARG_OF_PERICENTER>86.3568</ARG_OF_PERICENTER><MEAN_ANOMALY>273.7795</MEAN_ANOMALY></meanElements><tleParameters><EPHEMERIS_TYPE>0</EPHEMERIS_TYPE><CLASSIFICATION_TYPE>U</CLASSIFICATION_TYPE><NORAD_CAT_ID>48967</NORAD_CAT_ID><ELEMENT_SET_NO>999</ELEMENT_SET_NO><REV_AT_EPOCH>20993</REV_AT_EPOCH><BSTAR>.71309991E-4</BSTAR><MEAN_MOTION_DOT>.4E-6</MEAN_MOTION_DOT><MEAN_MOTION_DDOT>0</MEAN_MOTION_DDOT></tleParameters></data></segment></body></omm>
<omm id="CCSDS_OMM_VERS" version="2.0">
<header><CREATION_DATE/><ORIGINATOR/></header><body><segment><metadata><OBJECT_NAME>ONEWEB-0250</OBJECT_NAME><OBJECT_ID>2021-060B</OBJECT_ID><CENTER_NAME>EARTH</CENTER_NAME><REF_FRAME>TEME</REF_FRAME><TIME_SYSTEM>UTC</TIME_SYSTEM><MEAN_ELEMENT_THEORY>SGP4</MEAN_ELEMENT_THEORY></metadata><data><meanElements><EPOCH>2025-11-04T06:16:24.052800</EPOCH><MEAN_MOTION>13.25816315</MEAN_MOTION><ECCENTRICITY>.00028578</ECCENTRICITY><INCLINATION>87.8990</INCLINATION><RA_OF_ASC_NODE>272.0703</RA_OF_ASC_NODE><ARG_OF_PERICENTER>72.2713</ARG_OF_PERICENTER><MEAN_ANOMALY>287.8735</MEAN_ANOMALY></meanElements><tleParameters><EPHEMERIS_TYPE>0</EPHEMERIS_TYPE><CLASSIFICATION_TYPE>U</CLASSIFICATION_TYPE><NORAD_CAT_ID>48968</NORAD_CAT_ID><ELEMENT_SET_NO>999</ELEMENT_SET_NO><REV_AT_EPOCH>21041</REV_AT_EPOCH><BSTAR>.19658191E-3</BSTAR><MEAN_MOTION_DOT>.99E-6</MEAN_MOTION_DOT><MEAN_MOTION_DDOT>0</MEAN_MOTION_DDOT></tleParameters></data></segment></body></omm>
<omm id="CCSDS_OMM_VERS" version="2.0">
<header><CREATION_DATE/><ORIGINATOR/></header><body><segment><metadata><OBJECT_NAME>ONEWEB-0252</OBJECT_NAME><OBJECT_ID>2021-060D</OBJECT_ID><CENTER_NAME>EARTH</CENTER_NAME><REF_FRAME>TEME</REF_FRAME><TIME_SYSTEM>UTC</TIME_SYSTEM><MEAN_ELEMENT_THEORY>SGP4</MEAN_ELEMENT_THEORY></metadata><data><meanElements><EPOCH>2025-11-04T06:50:03.035904</EPOCH><MEAN_MOTION>13.16593311</MEAN_MOTION><ECCENTRICITY>.00017755</ECCENTRICITY><INCLINATION>87.8992</INCLINATION><RA_OF_ASC_NODE>273.5671</RA_OF_ASC_NODE><ARG_OF_PERICENTER>90.7247</ARG_OF_PERICENTER><MEAN_ANOMALY>269.4087</MEAN_ANOMALY></meanElements><tleParameters><EPHEMERIS_TYPE>0</EPHEMERIS_TYPE><CLASSIFICATION_TYPE>U</CLASSIFICATION_TYPE><NORAD_CAT_ID>48970</NORAD_CAT_ID><ELEMENT_SET_NO>999</ELEMENT_SET_NO><REV_AT_EPOCH>21006</REV_AT_EPOCH><BSTAR>.2893631E-3</BSTAR><MEAN_MOTION_DOT>.123E-5</MEAN_MOTION_DOT><MEAN_MOTION_DDOT>0</MEAN_MOTION_DDOT></tleParameters></data></segment></body></omm>
<omm id="CCSDS_OMM_VERS" version="2.0">
<header><CREATION_DATE/><ORIGINATOR/></header><body><segment><metadata><OBJECT_NAME>ONEWEB-0253</OBJECT_NAME><OBJECT_ID>2021-060E</OBJECT_ID><CENTER_NAME>EARTH</CENTER_NAME><REF_FRAME>TEME</REF_FRAME><TIME_SYSTEM>UTC</TIME_SYSTEM><MEAN_ELEMENT_THEORY>SGP4</MEAN_ELEMENT_THEORY></metadata><data><meanElements><EPOCH>2025-11-04T06:34:05.382624</EPOCH><MEAN_MOTION>13.16591913</MEAN_MOTION><ECCENTRICITY>.00020351</ECCENTRICITY><INCLINATION>87.8994</INCLINATION><RA_OF_ASC_NODE>273.5733</RA_OF_ASC_NODE><ARG_OF_PERICENTER>88.4600</ARG_OF_PERICENTER><MEAN_ANOMALY>271.6764</MEAN_ANOMALY></meanElements><tleParameters><EPHEMERIS_TYPE>0</EPHEMERIS_TYPE><CLASSIFICATION_TYPE>U</CLASSIFICATION_TYPE><NORAD_CAT_ID>48971</NORAD_CAT_ID><ELEMENT_SET_NO>999</ELEMENT_SET_NO><REV_AT_EPOCH>20999</REV_AT_EPOCH><BSTAR>.25587816E-3</BSTAR><MEAN_MOTION_DOT>.111E-5</MEAN_MOTION_DOT><MEAN_MOTION_DDOT>0</MEAN_MOTION_DDOT></tleParameters></data></segment></body></omm>
<omm id="CCSDS_OMM_VERS" version="2.0">
<header><CREATION_DATE/><ORIGINATOR/></header><body><segment><metadata><OBJECT_NAME>ONEWEB-0254</OBJECT_NAME><OBJECT_ID>2021-060F</OBJECT_ID><CENTER_NAME>EARTH</CENTER_NAME><REF_FRAME>TEME</REF_FRAME><TIME_SYSTEM>UTC</TIME_SYSTEM><MEAN_ELEMENT_THEORY>SGP4</MEAN_ELEMENT_THEORY></metadata><data><meanElements><EPOCH>2025-11-04T06:47:46.958496</EPOCH><MEAN_MOTION>13.16592662</MEAN_MOTION><ECCENTRICITY>.00022536</ECCENTRICITY><INCLINATION>87.9002</INCLINATION><RA_OF_ASC_NODE>273.5609</RA_OF_ASC_NODE><ARG_OF_PERICENTER>88.1804</ARG_OF_PERICENTER><MEAN_ANOMALY>271.9585</MEAN_ANOMALY></meanElements><tleParameters><EPHEMERIS_TYPE>0</EPHEMERIS_TYPE><CLASSIFICATION_TYPE>U</CLASSIFICATION_TYPE><NORAD_CAT_ID>48972</NORAD_CAT_ID><ELEMENT_SET_NO>999</ELEMENT_SET_NO><REV_AT_EPOCH>20999</REV_AT_EPOCH><BSTAR>.1277119E-3</BSTAR><MEAN_MOTION_DOT>.62E-6</MEAN_MOTION_DOT><MEAN_MOTION_DDOT>0</MEAN_MOTION_DDOT></tleParameters></data></segment></body></omm>
<omm id="CCSDS_OMM_VERS" version="2.0">
<header><CREATION_DATE/><ORIGINATOR/></header><body><segment><metadata><OBJECT_NAME>ONEWEB-0255</OBJECT_NAME><OBJECT_ID>2021-060G</OBJECT_ID><CENTER_NAME>EARTH</CENTER_NAME><REF_FRAME>TEME</REF_FRAME><TIME_SYSTEM>UTC</TIME_SYSTEM><MEAN_ELEMENT_THEORY>SGP4</MEAN_ELEMENT_THEORY></metadata><data><meanElements><EPOCH>2025-11-04T04:03:36.397728</EPOCH><MEAN_MOTION>13.16596511</MEAN_MOTION><ECCENTRICITY>.00021211</ECCENTRICITY><INCLINATION>87.8992</INCLINATION><RA_OF_ASC_NODE>273.6033</RA_OF_ASC_NODE><ARG_OF_PERICENTER>87.2687</ARG_OF_PERICENTER><MEAN_ANOMALY>272.8687</MEAN_ANOMALY></meanElements><tleParameters><EPHEMERIS_TYPE>0</EPHEMERIS_TYPE><CLASSIFICATION_TYPE>U</CLASSIFICATION_TYPE><NORAD_CAT_ID>48973</NORAD_CAT_ID><ELEMENT_SET_NO>999</ELEMENT_SET_NO><REV_AT_EPOCH>21005</REV_AT_EPOCH><BSTAR>-.28426732E-3</BSTAR><MEAN_MOTION_DOT>-.96E-6</MEAN_MOTION_DOT><MEAN_MOTION_DDOT>0</MEAN_MOTION_DDOT></tleParameters></data></segment></body></omm>
<omm id="CCSDS_OMM_VERS" version="2.0">
<header><CREATION_DATE/><ORIGINATOR/></header><body><segment><metadata><OBJECT_NAME>ONEWEB-0256</OBJECT_NAME><OBJECT_ID>2021-060H</OBJECT_ID><CENTER_NAME>EARTH</CENTER_NAME><REF_FRAME>TEME</REF_FRAME><TIME_SYSTEM>UTC</TIME_SYSTEM><MEAN_ELEMENT_THEORY>SGP4</MEAN_ELEMENT_THEORY></metadata><data><meanElements><EPOCH>2025-11-04T06:30:39.628800</EPOCH><MEAN_MOTION>13.16594903</MEAN_MOTION><ECCENTRICITY>.00017408</ECCENTRICITY><INCLINATION>87.8978</INCLINATION><RA_OF_ASC_NODE>273.5937</RA_OF_ASC_NODE><ARG_OF_PERICENTER>86.3002</ARG_OF_PERICENTER><MEAN_ANOMALY>273.8328</MEAN_ANOMALY></meanElements><tleParameters><EPHEMERIS_TYPE>0</EPHEMERIS_TYPE><CLASSIFICATION_TYPE>U</CLASSIFICATION_TYPE><NORAD_CAT_ID>48974</NORAD_CAT_ID><ELEMENT_SET_NO>999</ELEMENT_SET_NO><REV_AT_EPOCH>21003</REV_AT_EPOCH><BSTAR>.33052381E-4</BSTAR><MEAN_MOTION_DOT>.25E-6</MEAN_MOTION_DOT><MEAN_MOTION_DDOT>0</MEAN_MOTION_DDOT></tleParameters></data></segment></body></omm>
<omm id="CCSDS_OMM_VERS" version="2.0">
<header><CREATION_DATE/><ORIGINATOR/></header><body><segment><metadata><OBJECT_NAME>ONEWEB-0257</OBJECT_NAME><OBJECT_ID>2021-060J</OBJECT_ID><CENTER_NAME>EARTH</CENTER_NAME><REF_FRAME>TEME</REF_FRAME><TIME_SYSTEM>UTC</TIME_SYSTEM><MEAN_ELEMENT_THEORY>SGP4</MEAN_ELEMENT_THEORY></metadata><data><meanElements><EPOCH>2025-11-04T07:17:24.507168</EPOCH><MEAN_MOTION>13.16595851</MEAN_MOTION><ECCENTRICITY>.00019982</ECCENTRICITY><INCLINATION>87.8999</INCLINATION><RA_OF_ASC_NODE>273.5612</RA_OF_ASC_NODE><ARG_OF_PERICENTER>88.6318</ARG_OF_PERICENTER><MEAN_ANOMALY>271.5041</MEAN_ANOMALY></meanElements><tleParameters><EPHEMERIS_TYPE>0</EPHEMERIS_TYPE><CLASSIFICATION_TYPE>U</CLASSIFICATION_TYPE><NORAD_CAT_ID>48975</NORAD_CAT_ID><ELEMENT_SET_NO>999</ELEMENT_SET_NO><REV_AT_EPOCH>20999</REV_AT_EPOCH><BSTAR>.88188871E-4</BSTAR><MEAN_MOTION_DOT>.47E-6</MEAN_MOTION_DOT><MEAN_MOTION_DDOT>0</MEAN_MOTION_DDOT></tleParameters></data></segment></body></omm>

</ndm>
