ONEWEB-0249             
1 48967U 21060A   25307.64511128  .00000040  00000+0  71310-4 0  9997
2 48967  87.8993 273.7014 0002030  86.3568 273.7795 13.16595173209939
ONEWEB-0250             
1 48968U 21060B   25308.26138950  .00000099  00000+0  19658-3 0  9995
2 48968  87.8990 272.0703 0002857  72.2713 287.8735 13.25816315210416
ONEWEB-0252             
1 48970U 21060D   25308.28475736  .00000123  00000+0  28936-3 0  9993
2 48970  87.8992 273.5671 0001775  90.7247 269.4087 13.16593311210061
ONEWEB-0253             
1 48971U 21060E   25308.27367341  .00000111  00000+0  25588-3 0  9992
2 48971  87.8994 273.5733 0002035  88.4600 271.6764 13.16591913209993
ONEWEB-0254             
1 48972U 21060F   25308.28318239  .00000062  00000+0  12771-3 0  9991
2 48972  87.9002 273.5609 0002253  88.1804 271.9585 13.16592662209998
ONEWEB-0255             
1 48973U 21060G   25308.16917127 -.00000096  00000+0 -28427-3 0  9994
2 48973  87.8992 273.6033 0002121  87.2687 272.8687 13.16596511210050
ONEWEB-0256             
1 48974U 21060H   25308.27129200  .00000025  00000+0  33052-4 0  9995
2 48974  87.8978 273.5937 0001740  86.3002 273.8328 13.16594903210038
ONEWEB-0257             
1 48975U 21060J   25308.30375587  .00000047  00000+0  88189-4 0  9996
2 48975  87.8999 273.5612 0001998  88.6318 271.5041 13.16595851209995
